NORAD_CAT_ID,OBJECT_NAME,OBJECT_TYPE,EPOCH,MEAN_MOTION,ECCENTRICITY,INCLINATION,RA_OF_ASC_NODE,ARG_OF_PERICENTER,MEAN_ANOMALY,BSTAR,MEAN_MOTION_DOT,MEAN_MOTION_DDOT,TLE_LINE0,TLE_LINE1,TLE_LINE2,SEMIMAJOR_AXIS,PERIOD,APOGEE,PERIGEE,DECAYED
52625.0,STARLINK-3988,PAYLOAD,2023-10-31 20:44:33,15.08833064,0.00014,53.2156,169.0285,105.9349,254.1797,0.00038892,5.906e-05,0.0,0 STARLINK-3988,1 52625U 22052AD  23304.86427885  .00005906  00000-0  38892-3 0  9994,2 52625  53.2156 169.0285 0001400 105.9349 254.1797 15.08833064 81182,6917.902,95.438,540.735,538.798,0.0
52625.0,STARLINK-3988,PAYLOAD,2023-11-01 01:30:43,15.08838524,0.0001422,53.2156,168.1365,106.2565,253.8584,0.00053381,8.217e-05,0.0,0 STARLINK-3988,1 52625U 22052AD  23305.06299890  .00008217  00000-0  53381-3 0  9998,2 52625  53.2156 168.1365 0001422 106.2565 253.8584 15.08838524 81590,6917.885,95.438,540.734,538.766,0.0
52625.0,STARLINK-3988,PAYLOAD,2023-11-01 14:13:48,15.08833411,0.0001488,53.2159,165.7581,103.4676,256.6482,0.00017059,2.428e-05,0.0,0 STARLINK-3988,1 52625U 22052AD  23305.59292247  .00002428  00000-0  17059-3 0  9995,2 52625  53.2159 165.7581 0001488 103.4676 256.6482 15.08833411 81295,6917.901,95.438,540.795,538.736,0.0
52625.0,STARLINK-3988,PAYLOAD,2023-11-01 20:35:21,15.0883379,0.0001484,53.2159,164.5685,103.0066,257.1092,0.0001766,2.523e-05,0.0,0 STARLINK-3988,1 52625U 22052AD  23305.85788375  .00002523  00000-0  17660-3 0  9990,2 52625  53.2159 164.5685 0001484 103.0066 257.1092 15.08833790 81712,6917.899,95.438,540.791,538.738,0.0
52625.0,STARLINK-3988,PAYLOAD,2023-11-01 22:10:44,15.08834806,0.0001433,53.2158,164.2715,102.7323,257.3829,0.0001872,2.692e-05,0.0,0 STARLINK-3988,1 52625U 22052AD  23305.92412346  .00002692  00000-0  18720-3 0  9995,2 52625  53.2158 164.2715 0001433 102.7323 257.3829 15.08834806 81346,6917.896,95.438,540.753,538.77,0.0
52625.0,STARLINK-3988,PAYLOAD,2023-11-02 07:43:03,15.08839228,0.0001521,53.216,162.487,96.1983,263.9182,0.0002098,3.052e-05,0.0,0 STARLINK-3988,1 52625U 22052AD  23306.32156315  .00003052  00000-0  20980-3 0  9993,2 52625  53.2160 162.4870 0001521  96.1983 263.9182 15.08839228 81402,6917.883,95.438,540.8,538.696,0.0
52625.0,STARLINK-3988,PAYLOAD,2023-11-02 22:01:31,15.08844645,0.0001404,53.2153,159.8114,99.4672,260.6479,0.00023445,3.446e-05,0.0,0 STARLINK-3988,1 52625U 22052AD  23306.91772145  .00003446  00000-0  23445-3 0  9999,2 52625  53.2153 159.8114 0001404  99.4672 260.6479 15.08844645 81497,6917.866,95.437,540.702,538.76,0.0
52625.0,STARLINK-3988,PAYLOAD,2023-11-03 04:23:03,15.08833853,0.0001334,53.2154,158.6213,88.291,271.8235,-2.5669e-05,-6.96e-06,0.0,0 STARLINK-3988,1 52625U 22052AD  23307.18268501 -.00000696  00000-0 -25669-4 0  9992,2 52625  53.2154 158.6213 0001334  88.2910 271.8235 15.08833853 81918,6917.899,95.438,540.687,538.841,0.0
52625.0,STARLINK-3988,PAYLOAD,2023-11-03 13:55:22,15.08837639,0.0001409,53.2153,156.8368,90.3289,269.7864,6.9305e-05,8.15e-06,0.0,0 STARLINK-3988,1 52625U 22052AD  23307.58012536  .00000815  00000-0  69305-4 0  9997,2 52625  53.2153 156.8368 0001409  90.3289 269.7864 15.08837639 81598,6917.888,95.438,540.727,538.778,0.0
52625.0,STARLINK-3988,PAYLOAD,2023-11-03 20:16:55,15.08845364,0.0001234,53.2154,155.6473,89.9572,270.1561,0.00031542,4.736e-05,0.0,0 STARLINK-3988,1 52625U 22052AD  23307.84508246  .00004736  00000-0  31542-3 0  9991,2 52625  53.2154 155.6473 0001234  89.9572 270.1561 15.08845364 82010,6917.864,95.437,540.583,538.875,0.0
52625.0,STARLINK-3988,PAYLOAD,2023-11-04 07:24:37,15.08841539,0.0001262,53.2156,153.5658,87.3983,272.7153,0.00023152,3.399e-05,0.0,0 STARLINK-3988,1 52625U 22052AD  23308.30876404  .00003399  00000-0  23152-3 0  9999,2 52625  53.2156 153.5658 0001262  87.3983 272.7153 15.08841539 82085,6917.876,95.437,540.614,538.868,0.0
52625.0,STARLINK-3988,PAYLOAD,2023-11-04 20:07:42,15.08841678,0.0001273,53.2158,151.187,88.1782,271.9356,0.00022425,3.283e-05,0.0,0 STARLINK-3988,1 52625U 22052AD  23308.83868641  .00003283  00000-0  22425-3 0  9995,2 52625  53.2158 151.1870 0001273  88.1782 271.9356 15.08841678 81781,6917.875,95.437,540.621,538.86,0.0
52625.0,STARLINK-3988,PAYLOAD,2023-11-05 07:15:24,15.08850839,0.0001304,53.216,149.1055,86.9817,273.1324,0.00046219,7.078e-05,0.0,0 STARLINK-3988,1 52625U 22052AD  23309.30236424  .00007078  00000-0  46219-3 0  9999,2 52625  53.2160 149.1055 0001304  86.9817 273.1324 15.08850839 81852,6917.847,95.437,540.614,538.81,0.0
52625.0,STARLINK-3988,PAYLOAD,2023-11-05 19:58:28,15.08858422,0.0001419,53.2159,146.7262,92.443,267.6725,0.00051017,7.845e-05,0.0,0 STARLINK-3988,1 52625U 22052AD  23309.83227944  .00007845  00000-0  51017-3 0  9998,2 52625  53.2159 146.7262 0001419  92.4430 267.6725 15.08858422 82314,6917.824,95.436,540.671,538.707,0.0
52625.0,STARLINK-3988,PAYLOAD,2023-11-05 23:09:14,15.08876776,0.0001396,53.2161,146.1316,90.5442,269.571,0.0009742,0.00015266,0.0,0 STARLINK-3988,1 52625U 22052AD  23309.96475456  .00015266  00000-0  97420-3 0  9999,2 52625  53.2161 146.1316 0001396  90.5442 269.5710 15.08876776 82336,6917.768,95.435,540.599,538.667,0.0
52625.0,STARLINK-3988,PAYLOAD,2023-11-06 19:49:15,15.08857477,0.0001335,53.216,142.2655,81.1027,279.0116,0.00027071,4.025e-05,0.0,0 STARLINK-3988,1 52625U 22052AD  23310.82587215  .00004025  00000-0  27071-3 0  9999,2 52625  53.2160 142.2655 0001335  81.1027 279.0116 15.08857477 82463,6917.827,95.436,540.615,538.768,0.0
52625.0,STARLINK-3988,PAYLOAD,2023-11-07 11:43:07,15.08833256,0.0001407,53.2157,139.2908,80.4095,279.7056,-4.6446e-05,-1.027e-05,0.0,0 STARLINK-3988,1 52625U 22052AD  23311.48827899 -.00001027  00000-0 -46446-4 0  9996,2 52625  53.2157 139.2908 0001407  80.4095 279.7056 15.08833256 82563,6917.901,95.438,540.739,538.793,0.0
52625.0,STARLINK-3988,PAYLOAD,2023-11-07 13:18:30,15.08825841,0.0001207,53.2157,138.9935,93.4234,266.6896,0.00026069,3.862e-05,0.0,0 STARLINK-3988,1 52625U 22052AD  23311.55452059  .00003862  00000-0  26069-3 0  9991,2 52625  53.2157 138.9935 0001207  93.4234 266.6896 15.08825841 82193,6917.924,95.438,540.624,538.954,0.0
52625.0,STARLINK-3988,PAYLOAD,2023-11-07 19:40:03,15.08818239,0.0001296,53.2162,137.8055,87.3969,272.7171,0.00030357,4.544e-05,0.0,0 STARLINK-3988,1 52625U 22052AD  23311.81948596  .00004544  00000-0  30357-3 0  9999,2 52625  53.2162 137.8055 0001296  87.3969 272.7171 15.08818239 82619,6917.947,95.439,540.708,538.915,0.0
52625.0,STARLINK-3988,PAYLOAD,2023-11-08 13:09:18,15.08828089,0.0001281,53.2161,134.5347,91.1724,268.9415,0.00048932,7.506e-05,0.0,0 STARLINK-3988,1 52625U 22052AD  23312.54813372  .00007506  00000-0  48932-3 0  9992,2 52625  53.2161 134.5347 0001281  91.1724 268.9415 15.08828089 82344,6917.917,95.438,540.668,538.896,0.0
52625.0,STARLINK-3988,PAYLOAD,2023-11-08 19:30:51,15.08850026,0.0001411,53.2163,133.3441,89.5512,270.5641,0.00092981,0.00014545,0.0,0 STARLINK-3988,1 52625U 22052AD  23312.81309040  .00014545  00000-0  92981-3 0  9998,2 52625  53.2163 133.3441 0001411  89.5512 270.5641 15.08850026 82761,6917.85,95.437,540.691,538.739,0.0
52625.0,STARLINK-3988,PAYLOAD,2023-11-09 05:03:09,15.08847537,6.23e-05,53.2166,131.5653,116.8429,243.2627,0.00062057,9.604e-05,0.0,0 STARLINK-3988,1 52625U 22052AD  23313.21053036  .00009604  00000-0  62057-3 0  9995,2 52625  53.2166 131.5653 0000623 116.8429 243.2627 15.08847537 82825,6917.857,95.437,540.153,539.291,0.0
52625.0,STARLINK-3988,PAYLOAD,2023-11-09 19:21:38,15.08852574,0.0001308,53.2157,128.8842,88.2413,271.8728,0.00054147,8.343e-05,0.0,0 STARLINK-3988,1 52625U 22052AD  23313.80669061  .00008343  00000-0  54147-3 0  9991,2 52625  53.2157 128.8842 0001308  88.2413 271.8728 15.08852574 82916,6917.842,95.437,540.612,538.802,0.0
52625.0,STARLINK-3988,PAYLOAD,2023-11-10 11:15:29,15.0885447,0.0001434,53.2156,125.9146,89.2151,270.9005,0.0003585,5.424e-05,0.0,0 STARLINK-3988,1 52625U 22052AD  23314.46908747  .00005424  00000-0  35850-3 0  9998,2 52625  53.2156 125.9146 0001434  89.2151 270.9005 15.08854470 83017,6917.836,95.437,540.693,538.709,0.0
52625.0,STARLINK-3988,PAYLOAD,2023-11-10 19:12:24,15.08851123,0.0001337,53.2154,124.4238,87.5176,272.5969,0.00023269,3.418e-05,0.0,0 STARLINK-3988,1 52625U 22052AD  23314.80028655  .00003418  00000-0  23269-3 0  9999,2 52625  53.2154 124.4238 0001337  87.5176 272.5969 15.08851123 82682,6917.846,95.437,540.636,538.786,0.0
52625.0,STARLINK-3988,PAYLOAD,2023-11-11 17:27:48,15.08847099,0.0001334,53.2157,120.2608,89.4626,270.6519,7.9938e-05,9.85e-06,0.0,0 STARLINK-3988,1 52625U 22052AD  23315.72764639  .00000985  00000-0  79938-4 0  9991,2 52625  53.2157 120.2608 0001334  89.4626 270.6519 15.08847099 83204,6917.859,95.437,540.647,538.801,0.0
52625.0,STARLINK-3988,PAYLOAD,2023-11-11 20:38:34,15.08847109,0.000132,53.2156,119.6662,90.5627,269.5516,4.0473e-05,3.56e-06,0.0,0 STARLINK-3988,1 52625U 22052AD  23315.86012509  .00000356  00000-0  40473-4 0  9992,2 52625  53.2156 119.6662 0001320  90.5627 269.5516 15.08847109 82849,6917.859,95.437,540.637,538.811,0.0
52625.0,STARLINK-3988,PAYLOAD,2023-11-12 04:35:30,15.08839485,0.0001326,53.2165,118.1766,95.1593,264.955,-8.0747e-06,-4.16e-06,0.0,0 STARLINK-3988,1 52625U 22052AD  23316.19132882 -.00000416  00000-0 -80747-5 0  9994,2 52625  53.2165 118.1766 0001326  95.1593 264.9550 15.08839485 83270,6917.882,95.438,540.664,538.83,0.0
52625.0,STARLINK-3988,PAYLOAD,2023-11-12 14:07:49,15.08837229,0.0001359,53.216,116.3939,91.3277,268.7871,1.5051e-05,-4.8e-07,0.0,0 STARLINK-3988,1 52625U 22052AD  23316.58877134 -.00000048  00000-0  15051-4 0  9998,2 52625  53.2160 116.3939 0001359  91.3277 268.7871 15.08837229 82956,6917.889,95.438,540.694,538.814,0.0
52625.0,STARLINK-3988,PAYLOAD,2023-11-12 20:29:22,15.08842687,0.0001372,53.2173,115.2042,92.7586,267.3564,5.9692e-06,-1.93e-06,0.0,0 STARLINK-3988,1 52625U 22052AD  23316.85372994 -.00000193  00000-0  59692-5 0  9993,2 52625  53.2173 115.2042 0001372  92.7586 267.3564 15.08842687 82998,6917.872,95.437,540.686,538.788,0.0
